# From MPEC 2026-K60
C/1942 EA (Vaisala),e,37.8825,172.3256,335.5355,19.65328,0.0113123,0.93495797,350.8830,07/01.0/2026,2000,g 13.5,4.0
# From JO 38, 189
C/1947 X1-B (Southern comet),e,140.6189,337.9906,196.8785,221.0932,0.0002998,0.99944045,0.0000,10/17.7013/1947,2000,g  9.0,4.0
# From MPC194091
C/1995 O1 (Hale-Bopp),e,89.7497,281.7771,130.7062,181.0771,0.0004045,0.99490259,0.0000,03/29.0350/1997,2000,g -2.0,4.0
# From MPC194092
P/1996 R2 (Lagerkvist),e,2.5997,39.9881,333.5637,3.770705,0.1346078,0.31392351,2.0046,07/01.0/2026,2000,g 11.5,4.0
# From MPC194093
C/1997 BA6 (Spacewatch),e,72.7616,317.9419,285.8981,2852,0.0000065,0.99878769,0.0000,11/16.7950/1999,2000,g 10.0,2.0
# From MPC194095
P/1998 VS24 (LINEAR),e,5.0288,158.9800,245.0093,4.518717,0.1026080,0.24328732,315.4247,07/01.0/2026,2000,g 13.0,2.0
# From MPEC 2026-L50
C/1999 F1 (Catalina),e,91.9840,20.0051,255.3125,16198,0.0000005,0.99964037,0.0000,01/28.0363/2002,2000,g  9.5,2.0
# From MPC194095
C/1999 J2 (Skiff),h,04/10.5793/2000,86.3920,50.2124,126.9451,1.000758,7.064306,2000,2.0,4.0
# From MPEC 2026-L53
P/1999 RO28 (LONEOS),e,7.5223,136.9721,232.2184,3.428375,0.1552643,0.67281506,36.9444,07/01.0/2026,2000,g 20.0,2.0
# From MPC194097
P/1999 XN120 (Catalina),e,5.0261,285.2645,161.2956,4.196492,0.1146501,0.21426649,22.1115,07/01.0/2026,2000,g 13.5,2.0
# From MPC194098
P/2000 R2 (LINEAR),e,11.6863,160.2210,176.6647,3.468322,0.1525896,0.53023934,32.2399,07/01.0/2026,2000,g 18.0,4.0
# From MPC194099
P/2001 H5 (NEAT),e,8.3720,328.7353,224.5472,6.091913,0.0655501,0.60005101,256.9069,07/01.0/2026,2000,g 12.0,4.0
# From MPEC 2026-M30
C/2001 M10 (NEAT),e,27.9593,293.9366,5.5948,26.69621,0.0071454,0.79931022,65.4593,07/01.0/2026,2000,g  8.0,4.0
# From MPC194101
C/2002 A1 (LINEAR),e,14.0724,81.0409,18.7504,16.04599,0.0153340,0.70961110,137.6463,07/01.0/2026,2000,g 12.5,2.0
# From MPC194101
C/2002 A2 (LINEAR),e,14.0409,81.0491,19.1063,15.90058,0.0155448,0.70726135,139.4296,07/01.0/2026,2000,g 11.0,2.0
# From MPC194101
C/2002 B1 (LINEAR),e,51.0205,58.3130,76.0450,9.871840,0.0317766,0.77072858,281.2420,07/01.0/2026,2000,g 11.5,4.0
# From MPC194101
C/2002 CE10 (LINEAR),e,145.3633,147.5748,126.2617,9.765220,0.0322984,0.78972802,271.4173,07/01.0/2026,2000,g 13.0,2.0
# From MPC194101
P/2002 EJ57 (LINEAR),e,4.9920,330.2163,167.3189,6.454154,0.0601098,0.59427135,176.1554,07/01.0/2026,2000,g 12.5,4.0
# From MPC194102
C/2002 L9 (NEAT),h,04/01.6160/2004,68.1858,110.4273,231.6494,1.000276,7.068128,2000,8.5,2.0
# From MPC194103
C/2002 VQ94 (LINEAR),e,70.5871,35.0108,99.8368,188.0001,0.0003824,0.96408890,2.8456,07/01.0/2026,2000,g  9.5,2.0
# From MPC194103
C/2003 A2 (Gleason),e,8.0718,154.4288,346.6289,12762,0.0000007,0.99910899,0.0000,11/10.7155/2003,2000,g  3.5,4.0
# From MPC194103
C/2003 E1 (NEAT),e,33.4910,137.2501,103.7812,13.76758,0.0192938,0.76235238,158.1753,07/01.0/2026,2000,g 12.5,2.0
# From MPC194104
P/2003 F2 (NEAT),e,11.5436,358.9362,193.1591,6.559759,0.0586641,0.53510232,142.3872,07/01.0/2026,2000,g 16.5,2.0
# From unp
P/2003 L1 (Scotti),e,9.0595,225.7365,355.1733,6.693847,0.0569102,0.25220060,124.0326,07/01.0/2026,2000,g  9.5,4.0
# From MPC194105
P/2003 T12 (SOHO),e,11.0137,174.5477,219.8318,2.584399,0.2372274,0.76993233,172.5684,07/01.0/2026,2000,g 17.0,4.0
# From MPC194106
C/2004 B1 (LINEAR),h,02/10.0047/2006,113.8220,273.3349,328.0085,1.000906,1.586866,2000,10.5,2.0
# From MPC194106
C/2004 C1 (Larsen),e,28.5661,151.4781,317.0869,11.73451,0.0245192,0.62966764,208.2529,07/01.0/2026,2000,g 13.5,2.0
# From MPC194106
P/2004 FY140 (LINEAR),e,2.1335,326.7748,241.9489,4.914026,0.0904790,0.16930665,3.0747,07/01.0/2026,2000,g 12.5,2.0
# From MPC194107
P/2004 R3 (LINEAR-NEAT),e,12.7723,305.3198,36.6669,4.737148,0.0955936,0.25685261,167.7603,07/01.0/2026,2000,g 14.5,4.0
# From MPEC 2026-L50
C/2004 T3 (SidingSpring),e,71.8360,50.3453,259.8634,17321,0.0000004,0.99948548,0.0000,04/01.9271/2003,2000,g  2.5,4.0
# From MPC 75705
P/2004 V5 (LINEAR-Hill),e,19.3235,47.7230,87.1302,8.065461,0.0430289,0.45031033,342.7835,07/01.0/2026,2000,g  8.0,4.0
# From unp
P/2004 V5-A (LINEAR-Hill),e,19.3269,47.7500,87.0951,8.066311,0.0430221,0.45039526,342.7966,07/01.0/2026,2000,g  8.0,4.0
# From MPC194107
P/2004 V5-B,e,19.3271,47.7506,87.1017,8.066498,0.0430206,0.45040632,342.7487,07/01.0/2026,2000,g  8.0,4.0
# From MPC194108
P/2005 E1 (Tubbiolo),e,4.2648,335.7238,193.8076,7.071937,0.0524079,0.37762781,53.0355,07/01.0/2026,2000,g 10.0,4.0
# From MPC194108
P/2005 L1 (McNaught),e,11.0742,122.8775,173.6598,3.765277,0.1348990,0.30290300,194.9286,07/01.0/2026,2000,g  9.5,4.0
# From MPC194109
P/2005 S2 (Skiff),e,3.1391,161.1701,230.2895,7.980339,0.0437192,0.19811591,318.7358,07/01.0/2026,2000,g  7.5,4.0
# From MPC194109
P/2005 T3 (Read),e,6.2312,27.5759,7.3939,7.565324,0.0473656,0.17367926,357.1974,07/01.0/2026,2000,g  9.0,4.0
# From MPC194110
P/2006 HR30 (SidingSpring),e,31.9642,309.6542,117.6174,7.791720,0.0453163,0.84343583,322.3157,07/01.0/2026,2000,g 11.0,4.0
# From MPC194111
C/2006 S3 (LONEOS),h,04/18.2097/2012,166.0360,38.5195,140.0680,1.000678,5.102675,2000,2.0,4.0
# From MPC194112
C/2007 D1 (LINEAR),e,41.5219,170.9471,339.8774,1379,0.0000192,0.99365887,0.0000,06/17.4821/2007,2000,g  3.5,4.0
# From MPC194113
P/2007 K2 (Gibbs),e,7.5868,188.2162,347.0260,7.414638,0.0488168,0.68725392,349.8036,07/01.0/2026,2000,g 14.0,4.0
# From MPC194114
P/2007 S1 (Zhao),e,5.9570,141.3144,245.3338,3.819821,0.1320199,0.33754644,180.0979,07/01.0/2026,2000,g 13.0,4.0
# From MPC194115
C/2007 S2 (Lemmon),e,16.9210,296.1348,210.1683,12.49170,0.0223240,0.55767368,145.1278,07/01.0/2026,2000,g  6.5,4.0
# From MPC194115
C/2008 E1 (Catalina),e,34.8638,188.8441,270.4717,10.76457,0.0279067,0.55279640,181.8805,07/01.0/2026,2000,g  7.0,4.0
# From MPC194117
C/2008 S3 (Boattini),h,06/09.7880/2011,162.7347,54.9619,40.2507,1.001838,8.053042,2000,4.0,4.0
# From MPC194117
P/2008 Y3 (McNaught),e,38.7888,262.8795,238.1850,8.031074,0.0433056,0.44882831,276.7446,07/01.0/2026,2000,g  8.5,4.0
# From MPC194117
P/2009 B1 (Boattini),e,22.2615,297.0725,129.0722,6.721497,0.0565594,0.63579394,0.0449,07/01.0/2026,2000,g 13.0,4.0
# From MPC194118
C/2009 F4 (McNaught),e,79.2560,53.5051,260.5155,13726,0.0000006,0.99960064,0.0000,12/24.0396/2011,2000,g  3.0,4.0
# From MPC194118
C/2009 P1 (Garradd),e,106.1153,325.7502,90.5114,13383,0.0000006,0.99988520,0.0000,12/24.4081/2011,2000,g  4.0,4.0
# From MPC194119
P/2009 Q5 (McNaught),e,40.9267,160.1263,209.2241,7.429091,0.0486744,0.60905215,298.3366,07/01.0/2026,2000,g 10.0,4.0
# From MPC194119
P/2009 WX51 (Catalina),e,9.6025,31.4986,118.3159,3.083179,0.1820564,0.73976104,14.0064,07/01.0/2026,2000,g 19.0,2.0
# From MPC194120
P/2009 Y2 (Kowalski),e,29.9849,262.0516,172.3136,6.539401,0.0589382,0.63759550,350.2706,07/01.0/2026,2000,g 13.0,4.0
# From MPC194120
P/2010 C1 (Scotti),e,9.1143,141.7216,2.7336,7.136174,0.0517018,0.26488034,317.9965,07/01.0/2026,2000,g  9.5,4.0
# From MPC194120
P/2010 D2 (WISE),e,57.1418,319.8864,120.0682,6.710586,0.0566974,0.45128377,338.8076,07/01.0/2026,2000,g 16.0,4.0
# From MPC194121
P/2010 H2 (Vales),e,14.2777,64.1873,128.1461,3.836053,0.1311829,0.19814895,62.6674,07/01.0/2026,2000,g  6.0,4.0
# From MPC194121
P/2010 H4 (Scotti),e,2.3176,44.7509,179.0991,6.621566,0.0578446,0.26764726,341.2203,07/01.0/2026,2000,g 10.5,4.0
# From MPC194122
P/2010 H5 (Scotti),e,14.0598,24.4003,175.8189,7.164593,0.0513945,0.15761902,305.3643,07/01.0/2026,2000,g 13.0,2.0
# From MPC194122
P/2010 JC81 (WISE),e,38.7278,30.8092,12.5396,8.104087,0.0427216,0.77759542,236.4777,07/01.0/2026,2000,g  9.0,4.0
# From MPC194122
C/2010 L3 (Catalina),h,11/14.2700/2010,102.6112,38.3302,121.7230,1.000199,9.856718,2000,4.5,4.0
# From MPC194123
C/2010 S1 (LINEAR),h,05/21.9923/2013,125.4248,93.6435,118.6905,1.000794,5.896552,2000,3.5,4.0
# From MPC194123
P/2010 T2 (PANSTARRS),e,7.8704,57.9754,349.1828,5.553608,0.0753080,0.32351534,65.2043,07/01.0/2026,2000,g 11.5,4.0
# From MPC194123
C/2010 U3 (Boattini),h,03/01.3449/2019,55.5110,42.9958,88.1353,1.000533,8.443325,2000,1.0,4.0
# From MPC194123
P/2010 UH55 (Spacewatch),e,8.0391,232.7547,225.4404,6.642569,0.0575705,0.56455671,319.5555,07/01.0/2026,2000,g 11.0,4.0
# From MPC194123
P/2011 C2 (Gibbs),e,10.9012,12.1397,160.2144,7.403144,0.0489305,0.27211354,260.0646,07/01.0/2026,2000,g  9.0,4.0
# From MPC194123
P/2011 FR143 (Lemmon),e,15.9609,190.9115,349.5151,6.889259,0.0545061,0.45329924,308.5042,07/01.0/2026,2000,g 14.0,2.0
# From MPC194124
C/2011 J2 (LINEAR),h,12/19.5196/2013,122.8627,164.0893,85.4810,1.000267,3.467775,2000,5.5,3.6
# From MPC194124
P/2011 JB15 (Spacewatch-Boattini),e,19.1386,153.6314,110.4939,7.384199,0.0491189,0.31577965,261.0203,07/01.0/2026,2000,g  9.0,4.0
# From MPC194124
C/2011 KP36 (Spacewatch),e,18.9496,173.4291,180.9387,39.31320,0.0039985,0.87467256,14.7559,07/01.0/2026,2000,g  4.5,4.0
# From MPC194125
P/2011 N1 (ASH),e,35.7936,77.5675,330.5889,6.229745,0.0633868,0.54511403,325.2466,07/01.0/2026,2000,g 11.5,4.0
# From MPC194125
P/2011 P1 (McNaught),e,5.6499,4.1663,349.1467,7.466671,0.0483074,0.32583499,281.0213,07/01.0/2026,2000,g  9.0,4.0
# From MPC194125
C/2011 P2 (PANSTARRS),e,8.9861,203.9107,76.1716,9.764413,0.0323024,0.36527977,187.5092,07/01.0/2026,2000,g  8.5,4.0
# From MPC194125
P/2011 S1 (Gibbs),e,2.6870,218.8091,193.1641,8.604424,0.0390500,0.19996008,169.1083,07/01.0/2026,2000,g  8.0,4.0
# From MPC194126
P/2011 V1 (Boattini),e,7.3821,46.4903,269.5839,3.858000,0.1300651,0.54835716,8.8985,07/01.0/2026,2000,g 15.5,4.0
# From MPC194126
P/2011 W1 (PANSTARRS),e,3.7164,161.7367,283.1968,4.676881,0.0974472,0.28807361,156.1460,07/01.0/2026,2000,g 11.5,4.0
# From MPC194126
P/2011 Y2 (Boattini),e,6.3943,309.2711,132.1541,6.223483,0.0634825,0.71107338,330.8885,07/01.0/2026,2000,g 15.0,4.0
# From MPC194126
C/2012 A1 (PANSTARRS),e,121.0160,277.8591,191.9842,13442,0.0000006,0.99943273,0.0000,11/28.8768/2013,2000,g  6.0,4.0
# From unp
P/2012 A3 (SOHO),e,11.0131,174.5495,219.8353,2.584395,0.2372279,0.76993230,172.5700,07/01.0/2026,2000,g 17.0,4.0
